H1 CPF  1  HTS 2022  3 19 12  5781 larets           NONE
H2  0304206 5557    27944 2022 03 19  0  0  0 2022 03 24  0  0  0   180 1 1  0 0 0
H5  0.0560 
H9 
10 0 59660  33480.00000  0   -2103482.704   -6686893.755    -942201.767
10 0 59660  33660.00000  0   -2389513.849   -6644453.354     391773.444
10 0 59660  33840.00000  0   -2584487.840   -6354632.044    1711425.874
10 0 59660  34020.00000  0   -2674979.565   -5830444.750    2968511.157
10 0 59660  34200.00000  0   -2651832.479   -5093762.476    4117068.972
10 0 59660  34380.00000  0   -2510707.035   -4174376.770    5115122.399
10 0 59660  34560.00000  0   -2252421.218   -3108761.349    5926212.908
10 0 59660  34740.00000  0   -1883065.642   -1938589.825    6520714.944
10 0 59660  34920.00000  0   -1413887.863    -709085.324    6876888.601
10 0 59660  35100.00000  0    -860955.778     532735.676    6981646.333
10 0 59660  35280.00000  0    -244614.154    1739856.285    6831016.755
10 0 59660  35460.00000  0     411256.219    2867034.241    6430305.549
10 0 59660  35640.00000  0    1080155.239    3872502.866    5793939.073
10 0 59660  35820.00000  0    1734023.887    4719542.364    4944992.648
10 0 59660  36000.00000  0    2344415.048    5377868.756    3914404.090
10 0 59660  36180.00000  0    2883730.870    5824779.598    2739884.572
10 0 59660  36360.00000  0    3326472.893    6046010.744    1464551.063
10 0 59660  36540.00000  0    3650439.354    6036244.095     135312.510
10 0 59660  36720.00000  0    3837802.288    5799231.043   -1198910.387
10 0 59660  36900.00000  0    3876009.896    5347526.011   -2489053.303
10 0 59660  37080.00000  0    3758462.870    4701844.671   -3687777.963
10 0 59660  37260.00000  0    3484926.495    3890081.924   -4751255.080
10 0 59660  37440.00000  0    3061663.258    2946053.445   -5640776.526
10 0 59660  37620.00000  0    2501288.014    1908032.392   -6324138.571
10 0 59660  37800.00000  0    1822358.969     817156.644   -6776750.044
10 0 59660  37980.00000  0    1048732.343    -284215.981   -6982442.328
10 0 59660  38160.00000  0     208708.629   -1354141.221   -6933982.044
10 0 59660  38340.00000  0    -666002.129   -2352658.903   -6633278.478
10 0 59660  38520.00000  0   -1541458.857   -3243252.083   -6091298.177
10 0 59660  38700.00000  0   -2382781.839   -3994162.095   -5327686.624
10 0 59660  38880.00000  0   -3155518.852   -4579518.592   -4370104.487
10 0 59660  39060.00000  0   -3827045.570   -4980250.797   -3253281.821
10 0 59660  39240.00000  0   -4367940.811   -5184737.284   -2017805.531
10 0 59660  39420.00000  0   -4753278.240   -5189164.659    -708673.091
10 0 59660  39600.00000  0   -4963769.875   -4997572.403     626343.443
10 0 59660  39780.00000  0   -4986699.739   -4621575.621    1938461.728
10 0 59660  39960.00000  0   -4816594.081   -4079771.224    3179707.086
10 0 59660  40140.00000  0   -4455591.518   -3396857.904    4304697.657
10 0 59660  40320.00000  0   -3913496.602   -2602518.436    5272321.419
10 0 59660  40500.00000  0   -3207515.261   -1730122.446    6047233.422
10 0 59660  40680.00000  0   -2361694.281    -815320.010    6601125.547
10 0 59660  40860.00000  0   -1406084.061     105419.884    6913735.464
10 0 59660  41040.00000  0    -375658.958     996260.955    6973556.923
10 0 59660  41220.00000  0     690957.296    1823385.769    6778251.053
10 0 59660  41400.00000  0    1752929.779    2556280.266    6334750.521
10 0 59660  41580.00000  0    2768769.705    3168868.897    5659046.941
10 0 59660  41760.00000  0    3697961.967    3640466.332    4775666.186
10 0 59660  41940.00000  0    4502606.498    3956510.912    3716826.080
10 0 59660  42120.00000  0    5149006.245    4109047.805    2521298.195
10 0 59660  42300.00000  0    5609132.816    4096934.836    1232989.092
10 0 59660  42480.00000  0    5861883.887    3925750.823    -100703.317
10 0 59660  42660.00000  0    5894064.475    3607408.759   -1430694.029
10 0 59660  42840.00000  0    5701032.550    3159490.656   -2708088.203
10 0 59660  43020.00000  0    5286976.349    2604343.247   -3886040.209
10 0 59660  43200.00000  0    4664816.409    1967987.781   -4921510.957
10 0 59660  43380.00000  0    3855739.060    1278900.730   -5776846.635
10 0 59660  43560.00000  0    2888399.223     566736.684   -6421112.137
10 0 59660  43740.00000  0    1797840.640    -138942.469   -6831148.262
10 0 59660  43920.00000  0     624188.426    -809878.879   -6992330.787
10 0 59660  44100.00000  0    -588836.309   -1420228.466   -6899029.881
10 0 59660  44280.00000  0   -1795529.568   -1947530.887   -6554765.587
10 0 59660  44460.00000  0   -2949896.764   -2373516.206   -5972069.794
10 0 59660  44640.00000  0   -4007375.007   -2684726.314   -5172056.185
10 0 59660  44820.00000  0   -4926540.705   -2872937.099   -4183708.056
10 0 59660  45000.00000  0   -5670743.383   -2935364.354   -3042883.217
10 0 59660  45180.00000  0   -6209597.636   -2874642.052   -1791058.213
10 0 59660  45360.00000  0   -6520264.691   -2698570.634    -473843.628
10 0 59660  45540.00000  0   -6588456.749   -2419643.224     860679.324
10 0 59660  45720.00000  0   -6409108.514   -2054369.346    2163737.413
10 0 59660  45900.00000  0   -5986671.404   -1622428.681    3387683.900
10 0 59660  46080.00000  0   -5335015.356   -1145698.783    4487770.778
10 0 59660  46260.00000  0   -4476942.881    -647206.698    5423800.611
10 0 59660  46440.00000  0   -3443349.732    -150060.864    6161584.500
10 0 59660  46620.00000  0   -2272076.922     323587.396    6674169.336
10 0 59660  46800.00000  0   -1006497.511     753505.559    6942792.482
10 0 59660  46980.00000  0     306098.570    1122226.008    6957542.354
10 0 59660  47160.00000  0    1616264.185    1415749.972    6717715.370
10 0 59660  47340.00000  0    2874247.936    1624084.487    6231864.075
10 0 59660  47520.00000  0    4031885.177    1741592.422    5517531.523
10 0 59660  47700.00000  0    5044466.166    1767143.181    4600668.244
10 0 59660  47880.00000  0    5872512.018    1704059.776    3514741.024
10 0 59660  48060.00000  0    6483389.783    1559860.170    2299537.849
10 0 59660  48240.00000  0    6852675.496    1345799.131     999706.202
10 0 59660  48420.00000  0    6965198.514    1076232.460    -336923.519
10 0 59660  48600.00000  0    6815702.139     767835.126   -1661160.646
10 0 59660  48780.00000  0    6409077.845     438712.029   -2924336.306
10 0 59660  48960.00000  0    5760165.908     107451.776   -4080151.698
10 0 59660  49140.00000  0    4893137.510    -207821.596   -5086410.525
10 0 59660  49320.00000  0    3840498.801    -490348.983   -5906554.605
10 0 59660  49500.00000  0    2641787.287    -725544.301   -6510951.280
10 0 59660  49680.00000  0    1342023.173    -901676.489   -6877900.605
10 0 59660  49860.00000  0     -10010.057   -1010398.088   -6994340.873
10 0 59660  50040.00000  0   -1363592.638   -1047104.049   -6856253.889
10 0 59660  50220.00000  0   -2667944.395   -1011110.723   -6468769.801
10 0 59660  50400.00000  0   -3874094.496    -905651.841   -5845973.898
10 0 59660  50580.00000  0   -4936691.363    -737694.074   -5010427.730
10 0 59660  50760.00000  0   -5815707.500    -517578.342   -3992405.251
10 0 59660  50940.00000  0   -6477974.267    -258499.594   -2828852.400
10 0 59660  51120.00000  0   -6898484.864      24157.514   -1562089.320
10 0 59660  51300.00000  0   -7061401.337     313599.041    -238290.686
10 0 59660  51480.00000  0   -6960704.432     592482.994    1094208.903
10 0 59660  51660.00000  0   -6600444.600     843816.534    2386705.007
10 0 59660  51840.00000  0   -5994586.161    1051842.623    3591936.955
10 0 59660  52020.00000  0   -5166442.111    1202870.221    4665845.784
10 0 59660  52200.00000  0   -4147733.381    1286004.646    5569193.983
10 0 59660  52380.00000  0   -2977330.124    1293742.504    6268986.514
10 0 59660  52560.00000  0   -1699734.856    1222405.582    6739653.320
10 0 59660  52740.00000  0    -363366.315    1072395.812    6963954.691
10 0 59660  52920.00000  0     981279.170     848259.600    6933585.266
10 0 59660  53100.00000  0    2283525.237     558559.552    6649477.025
10 0 59660  53280.00000  0    3494418.989     215556.842    6121794.359
10 0 59660  53460.00000  0    4568584.031    -165289.045    5369614.523
10 0 59660  53640.00000  0    5465958.133    -565988.786    4420289.014
10 0 59660  53820.00000  0    6153349.559    -966836.125    3308494.807
10 0 59660  54000.00000  0    6605746.128   -1347332.352    2074991.315
10 0 59660  54180.00000  0    6807304.925   -1687178.809     765115.649
10 0 59660  54360.00000  0    6751966.877   -1967289.101    -572923.887
10 0 59660  54540.00000  0    6443656.819   -2170767.312   -1889888.666
10 0 59660  54720.00000  0    5896050.697   -2283794.302   -3137394.146
10 0 59660  54900.00000  0    5131926.748   -2296375.056   -4269744.141
10 0 59660  55080.00000  0    4182147.851   -2202908.994   -5245630.373
10 0 59660  55260.00000  0    3084334.347   -2002559.112   -6029630.570
10 0 59660  55440.00000  0    1881303.514   -1699405.401   -6593446.584
10 0 59660  55620.00000  0     619359.524   -1302380.968   -6916860.367
10 0 59660  55800.00000  0    -653501.891    -824998.624   -6988388.121
10 0 59660  55980.00000  0   -1889402.496    -284883.135   -6805630.178
10 0 59660  56160.00000  0   -3042351.275     296877.090   -6375321.989
10 0 59660  56340.00000  0   -4069921.493     896538.539   -5713089.520
10 0 59660  56520.00000  0   -4934793.779    1488646.504   -4842920.386
10 0 59660  56700.00000  0   -5606121.522    2047087.456   -3796350.995
10 0 59660  56880.00000  0   -6060664.519    2546214.211   -2611376.939
10 0 59660  57060.00000  0   -6283640.901    2961992.272   -1331113.123
10 0 59660  57240.00000  0   -6269255.888    3273118.501      -2240.517
10 0 59660  57420.00000  0   -6020871.466    3462055.045    1326708.263
10 0 59660  57600.00000  0   -5550797.096    3515921.427    2607153.001
10 0 59660  57780.00000  0   -4879710.666    3427198.034    3792274.854
99
